NORAD_CAT_ID,OBJECT_NAME,OBJECT_TYPE,EPOCH,MEAN_MOTION,ECCENTRICITY,INCLINATION,RA_OF_ASC_NODE,ARG_OF_PERICENTER,MEAN_ANOMALY,BSTAR,MEAN_MOTION_DOT,MEAN_MOTION_DDOT,TLE_LINE0,TLE_LINE1,TLE_LINE2,SEMIMAJOR_AXIS,PERIOD,APOGEE,PERIGEE,DECAYED
53711.0,STARLINK-4627,PAYLOAD,2022-12-26 13:43:57,15.07197628,0.0001393,53.2182,97.0116,65.1321,294.9815,-0.00010747,-1.918e-05,0.0,0 STARLINK-4627,1 53711U 22107M   22360.57219756 -.00001918  00000-0 -10747-3 0  9997,2 53711  53.2182  97.0116 0001393  65.1321 294.9815 15.07197628 17549,6922.905,95.542,545.734,543.806,0.0
53711.0,STARLINK-4627,PAYLOAD,2022-12-26 18:30:25,15.07199094,0.000152,53.2193,96.1191,65.9116,294.2034,1.509e-05,-5.4e-07,0.0,0 STARLINK-4627,1 53711U 22107M   22360.77112869 -.00000054  00000-0  15090-4 0  9992,2 53711  53.2193  96.1191 0001520  65.9116 294.2034 15.07199094 18014,6922.901,95.541,545.818,543.7130000000002,0.0
53711.0,STARLINK-4627,PAYLOAD,2022-12-27 05:38:49,15.07212513,0.000158,53.2206,94.041,65.4472,294.6684,8.7244e-05,1.045e-05,0.0,0 STARLINK-4627,1 53711U 22107M   22361.23530067  .00001045  00000-0  87244-4 0  9998,2 53711  53.2206  94.0410 0001580  65.4472 294.6684 15.07212513 18080,6922.859,95.541,545.818,543.631,0.0
53711.0,STARLINK-4627,PAYLOAD,2022-12-27 13:36:16,15.07212325,0.0001499,53.2188,92.5566,63.6923,296.4222,0.00017416,2.369e-05,0.0,0 STARLINK-4627,1 53711U 22107M   22361.56685667  .00002369  00000-0  17416-3 0  9994,2 53711  53.2188  92.5566 0001499  63.6923 296.4222 15.07212325 17699,6922.86,95.541,545.763,543.687,0.0
53711.0,STARLINK-4627,PAYLOAD,2022-12-28 08:42:08,15.07214067,0.0001385,53.2188,88.993,57.3486,302.7639,0.0001953,2.691e-05,0.0,0 STARLINK-4627,1 53711U 22107M   22362.36259280  .00002691  00000-0  19530-3 0  9998,2 53711  53.2188  88.9930 0001385  57.3486 302.7639 15.07214067 18252,6922.855,95.541,545.678,543.761,0.0
53711.0,STARLINK-4627,PAYLOAD,2022-12-28 15:04:06,15.07206566,0.0001583,53.2216,87.8088,66.995,293.1209,0.00012334,1.595e-05,0.0,0 STARLINK-4627,1 53711U 22107M   22362.62784970  .00001595  00000-0  12334-3 0  9993,2 53711  53.2216  87.8088 0001583  66.9950 293.1209 15.07206566 17854,6922.878000000002,95.541,545.839,543.6469999999998,0.0
53711.0,STARLINK-4627,PAYLOAD,2022-12-29 05:23:32,15.07191614,0.0001514,53.2196,85.1342,59.7382,300.376,-0.00020539,-3.407e-05,0.0,0 STARLINK-4627,1 53711U 22107M   22363.22467794 -.00003407  00000-0 -20539-3 0  9994,2 53711  53.2196  85.1342 0001514  59.7382 300.3760 15.07191614 17948,6922.9230000000025,95.542,545.837,543.74,0.0
53711.0,STARLINK-4627,PAYLOAD,2022-12-29 11:45:29,15.07188825,0.000151,53.2185,83.9454,59.9328,300.1813,-0.00021044,-3.484e-05,0.0,0 STARLINK-4627,1 53711U 22107M   22363.48992674 -.00003484  00000-0 -21044-3 0  9999,2 53711  53.2185  83.9454 0001510  59.9328 300.1813 15.07188825 18425,6922.932,95.542,545.842,543.752,0.0
53711.0,STARLINK-4627,PAYLOAD,2022-12-30 05:15:52,15.07174712,0.0001261,53.2199,80.6785,67.7861,292.3264,0.00024319,3.417e-05,0.0,0 STARLINK-4627,1 53711U 22107M   22364.21935212  .00003417  00000-0  24319-3 0  9998,2 53711  53.2199  80.6785 0001261  67.7861 292.3264 15.07174712 18098,6922.975,95.543,545.7130000000002,543.967,0.0
53711.0,STARLINK-4627,PAYLOAD,2022-12-30 11:37:48,15.07194927,0.0001349,53.2192,79.4914,64.9333,295.1799,0.00017302,2.351e-05,0.0,0 STARLINK-4627,1 53711U 22107M   22364.48459460  .00002351  00000-0  17302-3 0  9993,2 53711  53.2192  79.4914 0001349  64.9333 295.1799 15.07194927 18130,6922.913000000001,95.542,545.712,543.844,0.0
53711.0,STARLINK-4627,PAYLOAD,2022-12-31 05:08:10,15.07208837,0.000123,53.2196,76.2245,64.4338,295.678,0.00031605,4.531e-05,0.0,0 STARLINK-4627,1 53711U 22107M   22365.21401232  .00004531  00000-0  31605-3 0  9993,2 53711  53.2196  76.2245 0001230  64.4338 295.6780 15.07208837 18248,6922.871,95.541,545.587,543.884,0.0
53711.0,STARLINK-4627,PAYLOAD,2022-12-31 11:30:08,15.07210818,0.0001594,53.2194,75.0384,54.7422,305.3718,0.00026573,3.764e-05,0.0,0 STARLINK-4627,1 53711U 22107M   22365.47926069  .00003764  00000-0  26573-3 0  9996,2 53711  53.2194  75.0384 0001594  54.7422 305.3718 15.07210818 18721,6922.865,95.541,545.8330000000002,543.626,0.0
53711.0,STARLINK-4627,PAYLOAD,2022-12-31 14:41:06,15.07211065,0.0001657,53.2194,74.4457,52.7204,307.3938,0.00026154,3.7e-05,0.0,0 STARLINK-4627,1 53711U 22107M   22365.61188404  .00003700  00000-0  26154-3 0  9990,2 53711  53.2194  74.4457 0001657  52.7204 307.3938 15.07211065 18744,6922.864000000001,95.541,545.876,543.582,0.0
53711.0,STARLINK-4627,PAYLOAD,2023-01-01 11:22:29,15.07198491,0.0001288,53.2203,70.5853,47.1456,312.9643,9.2495e-06,-1.43e-06,0.0,0 STARLINK-4627,1 53711U 22107M   23001.47395520 -.00000143  00000-0  92495-5 0  9993,2 53711  53.2203  70.5853 0001288  47.1456 312.9643 15.07198491 18437,6922.901999999999,95.541,545.659,543.876,0.0
53711.0,STARLINK-4627,PAYLOAD,2023-01-01 20:55:26,15.07198078,0.0001365999999999,53.2198,68.8033,46.3282,313.7822,-0.00014347,-2.466e-05,0.0,0 STARLINK-4627,1 53711U 22107M   23001.87183328 -.00002466  00000-0 -14347-3 0  9997,2 53711  53.2198  68.8033 0001366  46.3282 313.7822 15.07198078 18939,6922.904,95.542,545.714,543.823,0.0
53711.0,STARLINK-4627,PAYLOAD,2023-01-02 12:50:18,15.07213822,0.0001388,53.2192,65.8349,41.8274,318.2823,-5.2364e-05,-1.081e-05,0.0,0 STARLINK-4627,1 53711U 22107M   23002.53493775 -.00001081  00000-0 -52364-4 0  9995,2 53711  53.2192  65.8349 0001388  41.8274 318.2823 15.07213822 18593,6922.855,95.541,545.681,543.76,0.0
53711.0,STARLINK-4627,PAYLOAD,2023-01-02 14:25:48,15.07213914,0.0001448,53.2192,65.5383,47.9087,312.2027,-7.2225e-05,-1.383e-05,0.0,0 STARLINK-4627,1 53711U 22107M   23002.60125015 -.00001383  00000-0 -72225-4 0  9995,2 53711  53.2192  65.5383 0001448  47.9087 312.2027 15.07213914 19047,6922.855,95.541,545.7230000000002,543.7180000000002,0.0
53711.0,STARLINK-4627,PAYLOAD,2023-01-02 20:47:45,15.07203473,0.0001441999999999,53.2189,64.3501,49.119,310.9927,-6.4447e-05,-1.264e-05,0.0,0 STARLINK-4627,1 53711U 22107M   23002.86650412 -.00001264  00000-0 -64447-4 0  9992,2 53711  53.2189  64.3501 0001442  49.1190 310.9927 15.07203473 18643,6922.887,95.541,545.75,543.754,0.0
53711.0,STARLINK-4627,PAYLOAD,2023-01-03 04:45:13,15.07184638,0.0001361999999999,53.2192,62.8655,46.5921,313.5184,0.00010741,1.351e-05,0.0,0 STARLINK-4627,1 53711U 22107M   23003.19807214  .00001351  00000-0  10741-3 0  9995,2 53711  53.2192  62.8655 0001362  46.5921 313.5184 15.07184638 18694,6922.945,95.542,545.753,543.867,0.0
53711.0,STARLINK-4627,PAYLOAD,2023-01-03 12:42:39,15.07237661,0.0001192,53.2194,61.381,39.3165,320.7913,-0.00052409,-8.259e-05,0.0,0 STARLINK-4627,1 53711U 22107M   23003.52962155 -.00008259  00000-0 -52409-3 0  9991,2 53711  53.2194  61.3810 0001192  39.3165 320.7913 15.07237661 18745,6922.781999999997,95.539,545.4730000000002,543.822,0.0
53711.0,STARLINK-4627,PAYLOAD,2023-01-04 03:02:04,15.0720336,0.0001626,53.2198,58.7084,54.5643,305.5501,5.1593e-05,5.02e-06,0.0,0 STARLINK-4627,1 53711U 22107M   23004.12643605  .00000502  00000-0  51593-4 0  9999,2 53711  53.2198  58.7084 0001626  54.5643 305.5501 15.07203360 18837,6922.887,95.541,545.878,543.627,0.0
53711.0,STARLINK-4627,PAYLOAD,2023-01-04 10:59:30,15.07209334,0.0001629,53.2198,57.2236,54.3901,305.7242,5.9471e-05,6.22e-06,0.0,0 STARLINK-4627,1 53711U 22107M   23004.45799235  .00000622  00000-0  59471-4 0  9992,2 53711  53.2198  57.2236 0001629  54.3901 305.7242 15.07209334 19324,6922.869000000002,95.541,545.862,543.606,0.0
53711.0,STARLINK-4627,PAYLOAD,2023-01-04 20:32:25,15.07224608,0.0001786,53.2199,55.4411,50.3457,309.7692,0.00012269,1.585e-05,0.0,0 STARLINK-4627,1 53711U 22107M   23004.85584993  .00001585  00000-0  12269-3 0  9991,2 53711  53.2199  55.4411 0001786  50.3457 309.7692 15.07224608 18947,6922.821999999999,95.54,545.924,543.451,0.0
53711.0,STARLINK-4627,PAYLOAD,2023-01-05 09:16:19,15.07221413,0.0001635,53.2196,53.0665,49.9974,310.1161,0.00024299,3.419e-05,0.0,0 STARLINK-4627,1 53711U 22107M   23005.38634134  .00003419  00000-0  24299-3 0  9997,2 53711  53.2196  53.0665 0001635  49.9974 310.1161 15.07221413 19466,6922.831999999999,95.54,545.8290000000002,543.565,0.0
53711.0,STARLINK-4627,PAYLOAD,2023-01-06 12:19:41,15.07189588,0.0001733,53.2206,48.0162,57.5834,302.5325,-0.00022013,-3.631e-05,0.0,0 STARLINK-4627,1 53711U 22107M   23006.51367330 -.00003631  00000-0 -22013-3 0  9994,2 53711  53.2206  48.0162 0001733  57.5834 302.5325 15.07189588 19196,6922.93,95.542,545.994,543.595,0.0
53711.0,STARLINK-4627,PAYLOAD,2023-01-07 02:39:04,15.07196361,0.0001659,53.2216,45.3469,38.3608,321.7502,-7.9585e-05,-1.494e-05,0.0,0 STARLINK-4627,1 53711U 22107M   23007.11047372 -.00001494  00000-0 -79585-4 0  9994,2 53711  53.2216  45.3469 0001659  38.3608 321.7502 15.07196361 19287,6922.9090000000015,95.542,545.922,543.625,0.0
53711.0,STARLINK-4627,PAYLOAD,2023-01-07 09:01:01,15.07206699,0.0001842,53.2202,44.1607,47.8405,312.2743,-5.8915e-05,-1.18e-05,0.0,0 STARLINK-4627,1 53711U 22107M   23007.37571493 -.00001180  00000-0 -58915-4 0  9994,2 53711  53.2202  44.1607 0001842  47.8405 312.2743 15.07206699 19320,6922.877,95.541,546.0169999999998,543.467,0.0
53711.0,STARLINK-4627,PAYLOAD,2023-01-07 12:12:00,15.07209971,0.0001723,53.2198,43.5662,46.4493,313.6641,-4.9322e-05,-1.034e-05,0.0,0 STARLINK-4627,1 53711U 22107M   23007.50833629 -.00001034  00000-0 -49322-4 0  9991,2 53711  53.2198  43.5662 0001723  46.4493 313.6641 15.07209971 19786,6922.866999999998,95.541,545.925,543.539,0.0
53711.0,STARLINK-4627,PAYLOAD,2023-01-08 02:31:25,15.07199476,0.0001856,53.2184,40.8933,48.9486,311.1666,0.00018796,2.578e-05,0.0,0 STARLINK-4627,1 53711U 22107M   23008.10515164  .00002578  00000-0  18796-3 0  9991,2 53711  53.2184  40.8933 0001856  48.9486 311.1666 15.07199476 19438,6922.899,95.541,546.049,543.479,0.0
